start=new Date('2022-07-29T00:00:00.000Z').valueOf();
sats=[{"SITE":"AFETR","EPOCH":"2022-07-28T19:18:01.497600","REV_AT_EPOCH":"9846","MEAN_MOTION_DDOT":"0.0000000000000","OBJECT_ID":"2020-073BH","OBJECT_NAME":"STARLINK-1828","APOAPSIS":"548.363","BSTAR":"0.00016497000000","PERIAPSIS":"546.053","MEAN_MOTION":"15.06401708","RA_OF_ASC_NODE":"61.8148","EPHEMERIS_TYPE":"0","PERIOD":"95.592","NORAD_CAT_ID":"46725","GP_ID":"209041050","ELEMENT_SET_NO":"999","MEAN_MOTION_DOT":"0.00002177","SEMIMAJOR_AXIS":"6925.343","OBJECT_TYPE":"PAYLOAD","LAUNCH_DATE":"2020-10-18","CLASSIFICATION_TYPE":"U","FILE":"3523961","TLE_LINE2":"2 46725  53.0550  61.8148 0001668  74.8356 285.2818 15.06401708 98469","REF_FRAME":"TEME","INCLINATION":"53.0550","TIME_SYSTEM":"UTC","DECAY_DATE":null,"ECCENTRICITY":"0.00016680","COUNTRY_CODE":"US","ARG_OF_PERICENTER":"74.8356","MEAN_ANOMALY":"285.2818","CENTER_NAME":"EARTH","TLE_LINE1":"1 46725U 20073BH  22209.80418400  .00002177  00000-0  16497-3 0  9993","MEAN_ELEMENT_THEORY":"SGP4","RCS_SIZE":"LARGE"},{"ARG_OF_PERICENTER":"75.0932","MEAN_ANOMALY":"285.0764","CENTER_NAME":"EARTH","MEAN_ELEMENT_THEORY":"SGP4","TLE_LINE1":"1 46726U 20073BJ  22209.76224266  .00000770  00000-0  70691-4 0  9998","RCS_SIZE":"LARGE","MEAN_MOTION_DOT":"0.00000770","SEMIMAJOR_AXIS":"6925.359","OBJECT_TYPE":"PAYLOAD","LAUNCH_DATE":"2020-10-18","FILE":"3524113","CLASSIFICATION_TYPE":"U","TLE_LINE2":"2 46726  53.0549  46.9968 0006393  75.0932 285.0764 15.06396624 98182","REF_FRAME":"TEME","INCLINATION":"53.0549","TIME_SYSTEM":"UTC","DECAY_DATE":null,"ECCENTRICITY":"0.00063930","COUNTRY_CODE":"US","PERIAPSIS":"542.797","MEAN_MOTION":"15.06396624","RA_OF_ASC_NODE":"46.9968","EPHEMERIS_TYPE":"0","PERIOD":"95.592","NORAD_CAT_ID":"46726","GP_ID":"209065394","ELEMENT_SET_NO":"999","SITE":"AFETR","EPOCH":"2022-07-28T18:17:37.765824","REV_AT_EPOCH":"9818","MEAN_MOTION_DDOT":"0.0000000000000","OBJECT_ID":"2020-073BJ","OBJECT_NAME":"STARLINK-1829","APOAPSIS":"551.651","BSTAR":"0.00007069100000"},{"RA_OF_ASC_NODE":"22.2025","PERIAPSIS":"546.124","MEAN_MOTION":"15.06401521","EPHEMERIS_TYPE":"0","PERIOD":"95.592","NORAD_CAT_ID":"46727","GP_ID":"209065645","ELEMENT_SET_NO":"999","EPOCH":"2022-07-28T17:15:56.198880","SITE":"AFETR","MEAN_MOTION_DDOT":"0.0000000000000","REV_AT_EPOCH":"9853","OBJECT_NAME":"STARLINK-1830","OBJECT_ID":"2020-073BK","APOAPSIS":"548.294","BSTAR":"0.00021612000000","CENTER_NAME":"EARTH","ARG_OF_PERICENTER":"80.2354","MEAN_ANOMALY":"279.8812","RCS_SIZE":"LARGE","TLE_LINE1":"1 46727U 20073BK  22209.71940045  .00002939  00000-0  21612-3 0  9991","MEAN_ELEMENT_THEORY":"SGP4","SEMIMAJOR_AXIS":"6925.344","LAUNCH_DATE":"2020-10-18","OBJECT_TYPE":"PAYLOAD","MEAN_MOTION_DOT":"0.00002939","TLE_LINE2":"2 46727  53.0564  22.2025 0001567  80.2354 279.8812 15.06401521 98532","REF_FRAME":"TEME","CLASSIFICATION_TYPE":"U","FILE":"3524113","TIME_SYSTEM":"UTC","DECAY_DATE":null,"COUNTRY_CODE":"US","ECCENTRICITY":"0.00015670","INCLINATION":"53.0564"},{"TLE_LINE1":"1 46740U 20074B   22209.48074022 -.00000639  00000-0 -24010-4 0  9997","MEAN_ELEMENT_THEORY":"SGP4","RCS_SIZE":"LARGE","MEAN_ANOMALY":"288.7330","ARG_OF_PERICENTER":"71.3850","CENTER_NAME":"EARTH","INCLINATION":"53.0541","COUNTRY_CODE":"US","ECCENTRICITY":"0.00017550","DECAY_DATE":null,"TIME_SYSTEM":"UTC","MEAN_MOTION_DOT":"-0.00000639","LAUNCH_DATE":"2020-10-24","OBJECT_TYPE":"PAYLOAD","SEMIMAJOR_AXIS":"6925.356","FILE":"3523870","CLASSIFICATION_TYPE":"U","REF_FRAME":"TEME","TLE_LINE2":"2 46740  53.0541 133.2736 0001755  71.3850 288.7330 15.06397734 97628","NORAD_CAT_ID":"46740","GP_ID":"209038812","ELEMENT_SET_NO":"999","MEAN_MOTION":"15.06397734","PERIAPSIS":"546.005","RA_OF_ASC_NODE":"133.2736","PERIOD":"95.592","EPHEMERIS_TYPE":"0","APOAPSIS":"548.436","OBJECT_ID":"2020-074B","OBJECT_NAME":"STARLINK-1848","BSTAR":"-0.00002401000000","SITE":"AFETR","EPOCH":"2022-07-28T11:32:15.955008","REV_AT_EPOCH":"9762","MEAN_MOTION_DDOT":"0.0000000000000"},{"SITE":"AFETR","EPOCH":"2022-07-28T18:18:58.215456","REV_AT_EPOCH":"9773","MEAN_MOTION_DDOT":"0.0000000000000","APOAPSIS":"548.304","OBJECT_ID":"2020-074C","OBJECT_NAME":"STARLINK-1865","BSTAR":"0.00011914000000","MEAN_MOTION":"15.06401422","PERIAPSIS":"546.114","RA_OF_ASC_NODE":"127.0020","PERIOD":"95.592","EPHEMERIS_TYPE":"0","NORAD_CAT_ID":"46741","GP_ID":"209066645","ELEMENT_SET_NO":"999","MEAN_MOTION_DOT":"0.00001494","LAUNCH_DATE":"2020-10-24","OBJECT_TYPE":"PAYLOAD","SEMIMAJOR_AXIS":"6925.344","CLASSIFICATION_TYPE":"U","FILE":"3524113","REF_FRAME":"TEME","TLE_LINE2":"2 46741  53.0547 127.0020 0001581  78.0094 282.1072 15.06401422 97736","INCLINATION":"53.0547","COUNTRY_CODE":"US","ECCENTRICITY":"0.00015810","DECAY_DATE":null,"TIME_SYSTEM":"UTC","MEAN_ANOMALY":"282.1072","ARG_OF_PERICENTER":"78.0094","CENTER_NAME":"EARTH","TLE_LINE1":"1 46741U 20074C   22209.76317379  .00001494  00000-0  11914-3 0  9990","MEAN_ELEMENT_THEORY":"SGP4","RCS_SIZE":"LARGE"},{"ARG_OF_PERICENTER":"69.5414","MEAN_ANOMALY":"290.5751","CENTER_NAME":"EARTH","MEAN_ELEMENT_THEORY":"SGP4","TLE_LINE1":"1 46742U 20074D   22209.93273374 -.00000448  00000-0 -11194-4 0  9997","RCS_SIZE":"LARGE","FILE":"3524058","CLASSIFICATION_TYPE":"U","TLE_LINE2":"2 46742  53.0552 126.2484 0001642  69.5414 290.5751 15.06396825 97778","REF_FRAME":"TEME","MEAN_MOTION_DOT":"-0.00000448","SEMIMAJOR_AXIS":"6925.358","LAUNCH_DATE":"2020-10-24","OBJECT_TYPE":"PAYLOAD","INCLINATION":"53.0552","TIME_SYSTEM":"UTC","DECAY_DATE":null,"ECCENTRICITY":"0.00016420","COUNTRY_CODE":"US","EPHEMERIS_TYPE":"0","PERIOD":"95.592","MEAN_MOTION":"15.06396825","PERIAPSIS":"546.086","RA_OF_ASC_NODE":"126.2484","ELEMENT_SET_NO":"999","NORAD_CAT_ID":"46742","GP_ID":"209043297","REV_AT_EPOCH":"9777","MEAN_MOTION_DDOT":"0.0000000000000","SITE":"AFETR","EPOCH":"2022-07-28T22:23:08.195136","BSTAR":"-0.00001119400000","OBJECT_ID":"2020-074D","OBJECT_NAME":"STARLINK-1872","APOAPSIS":"548.360"},{"EPOCH":"2022-07-28T11:46:11.971776","SITE":"AFETR","MEAN_MOTION_DDOT":"0.0000000000000","REV_AT_EPOCH":"9771","OBJECT_ID":"2020-074E","OBJECT_NAME":"STARLINK-1892","APOAPSIS":"548.033","BSTAR":"0.00005976700000","RA_OF_ASC_NODE":"128.2112","MEAN_MOTION":"15.06392149","PERIAPSIS":"546.442","EPHEMERIS_TYPE":"0","PERIOD":"95.593","GP_ID":"209038625","NORAD_CAT_ID":"46743","ELEMENT_SET_NO":"999","SEMIMAJOR_AXIS":"6925.373","LAUNCH_DATE":"2020-10-24","OBJECT_TYPE":"PAYLOAD","MEAN_MOTION_DOT":"0.00000609","TLE_LINE2":"2 46743  53.0542 128.2112 0001149  84.6818 275.4302 15.06392149 97719","REF_FRAME":"TEME","FILE":"3523874","CLASSIFICATION_TYPE":"U","TIME_SYSTEM":"UTC","DECAY_DATE":null,"ECCENTRICITY":"0.00011490","COUNTRY_CODE":"US","INCLINATION":"53.0542","CENTER_NAME":"EARTH","ARG_OF_PERICENTER":"84.6818","MEAN_ANOMALY":"275.4302","RCS_SIZE":"LARGE","TLE_LINE1":"1 46743U 20074E   22209.49041634  .00000609  00000-0  59767-4 0  9996","MEAN_ELEMENT_THEORY":"SGP4"},{"NORAD_CAT_ID":"46744","GP_ID":"209031094","ELEMENT_SET_NO":"999","RA_OF_ASC_NODE":"128.1453","PERIAPSIS":"546.025","MEAN_MOTION":"15.06404474","EPHEMERIS_TYPE":"0","PERIOD":"95.592","OBJECT_NAME":"STARLINK-1894","OBJECT_ID":"2020-074F","APOAPSIS":"548.374","BSTAR":"0.00006841300000","EPOCH":"2022-07-28T12:11:22.200576","SITE":"AFETR","MEAN_MOTION_DDOT":"0.0000000000000","REV_AT_EPOCH":"9769","RCS_SIZE":"LARGE","TLE_LINE1":"1 46744U 20074F   22209.50789584  .00000738  00000-0  68413-4 0  9993","MEAN_ELEMENT_THEORY":"SGP4","CENTER_NAME":"EARTH","ARG_OF_PERICENTER":"60.8645","MEAN_ANOMALY":"299.2514","TIME_SYSTEM":"UTC","DECAY_DATE":null,"ECCENTRICITY":"0.00016960","COUNTRY_CODE":"US","INCLINATION":"53.0562","SEMIMAJOR_AXIS":"6925.335","OBJECT_TYPE":"PAYLOAD","LAUNCH_DATE":"2020-10-24","MEAN_MOTION_DOT":"0.00000738","TLE_LINE2":"2 46744  53.0562 128.1453 0001696  60.8645 299.2514 15.06404474 97691","REF_FRAME":"TEME","FILE":"3523641","CLASSIFICATION_TYPE":"U"},{"ELEMENT_SET_NO":"999","GP_ID":"209066145","NORAD_CAT_ID":"46745","EPHEMERIS_TYPE":"0","PERIOD":"93.170","RA_OF_ASC_NODE":"62.2945","MEAN_MOTION":"15.45561948","PERIAPSIS":"424.446","BSTAR":"0.00204560000000","OBJECT_ID":"2020-074G","OBJECT_NAME":"STARLINK-1898","APOAPSIS":"435.012","MEAN_MOTION_DDOT":"0.0000000000000","REV_AT_EPOCH":"9864","EPOCH":"2022-07-28T17:34:48.979776","SITE":"AFETR","RCS_SIZE":"LARGE","TLE_LINE1":"1 46745U 20074G   22209.73251134  .00100868  00000-0  20456-2 0  9992","MEAN_ELEMENT_THEORY":"SGP4","CENTER_NAME":"EARTH","ARG_OF_PERICENTER":"278.2244","MEAN_ANOMALY":"81.7882","TIME_SYSTEM":"UTC","DECAY_DATE":null,"ECCENTRICITY":"0.00077600","COUNTRY_CODE":"US","INCLINATION":"53.0527","TLE_LINE2":"2 46745  53.0527  62.2945 0007760 278.2244  81.7882 15.45561948 98646","REF_FRAME":"TEME","CLASSIFICATION_TYPE":"U","FILE":"3524113","SEMIMAJOR_AXIS":"6807.864","OBJECT_TYPE":"PAYLOAD","LAUNCH_DATE":"2020-10-24","MEAN_MOTION_DOT":"0.00100868"},{"INCLINATION":"53.0534","DECAY_DATE":null,"TIME_SYSTEM":"UTC","ECCENTRICITY":"0.00018970","COUNTRY_CODE":"US","CLASSIFICATION_TYPE":"U","FILE":"3524113","TLE_LINE2":"2 46746  53.0534 127.4855 0001897  67.0323 293.0866 15.06399925 97714","REF_FRAME":"TEME","MEAN_MOTION_DOT":"-0.00000338","SEMIMAJOR_AXIS":"6925.349","OBJECT_TYPE":"PAYLOAD","LAUNCH_DATE":"2020-10-24","TLE_LINE1":"1 46746U 20074H   22209.65628497 -.00000338  00000-0 -37786-5 0  9994","MEAN_ELEMENT_THEORY":"SGP4","RCS_SIZE":"LARGE","ARG_OF_PERICENTER":"67.0323","MEAN_ANOMALY":"293.0866","CENTER_NAME":"EARTH","BSTAR":"-0.00000377860000","OBJECT_ID":"2020-074H","OBJECT_NAME":"STARLINK-1905","APOAPSIS":"548.528","REV_AT_EPOCH":"9771","MEAN_MOTION_DDOT":"0.0000000000000","SITE":"AFETR","EPOCH":"2022-07-28T15:45:03.021408","ELEMENT_SET_NO":"999","GP_ID":"209064895","NORAD_CAT_ID":"46746","EPHEMERIS_TYPE":"0","PERIOD":"95.592","MEAN_MOTION":"15.06399925","PERIAPSIS":"545.900","RA_OF_ASC_NODE":"127.4855"}];
